{"type":"FeatureCollection","features":[{"type":"Feature","id":"1206302000","properties":{"municipality_code":"1206302000","municipality":"Banga","province":"South Cotabato","barangay_count":22},"geometry":{"type":"Polygon","coordinates":[[[124.73167952400003,6.390758895000033],[124.71899489943897,6.414228560298097],[124.71798624300006,6.416094822000047],[124.71627457800001,6.424558645000046],[124.71520363614705,6.427618388847321],[124.70931392436037,6.455436146090948],[124.72353848907483,6.479056487419618],[124.72394587800011,6.479051519000053],[124.727576343166,6.483653488597421],[124.74695566500009,6.508218674000032],[124.74571260296256,6.5080823043161375],[124.75307320400007,6.514490503000047],[124.77335952600004,6.500628083000037],[124.77635361894157,6.501561922128629],[124.81413995700008,6.513347248000057],[124.81696922011942,6.516655893582885],[124.81641082400007,6.515717738000035],[124.78578088200003,6.48301535200005],[124.8130812930001,6.464174916000045],[124.82691600500004,6.444986301000029],[124.84500280900012,6.419699153000067],[124.81343088500013,6.389075494000053],[124.83184975200005,6.377653330000043],[124.8659220795632,6.34240198267748],[124.86687495900003,6.341470035000043],[124.86720017346022,6.341079662334355],[124.86865383800011,6.339575696000053],[124.87934048300008,6.326553240000067],[124.88040271958181,6.3252319256736715],[124.88494552200007,6.319778952000036],[124.88486520475769,6.319681047747231],[124.88910300167655,6.314409659171906],[124.91065173100003,6.286579953000056],[124.89034759900007,6.278425690000063],[124.87390586700009,6.287536243000035],[124.85232259530946,6.288197288645033],[124.85478896100007,6.288891857000068],[124.84091787500006,6.331034390000069],[124.82332732800012,6.324589354000068],[124.81004402600001,6.351020843000073],[124.78523614800008,6.366611408000042],[124.78157852184228,6.360417874862717],[124.7815766100001,6.360418506000031],[124.78157655670933,6.360418400572327],[124.75637910400008,6.37536340400004],[124.73786260400006,6.387270168000043],[124.73575642589547,6.390297449967784],[124.73167952400003,6.390758895000033]]]}},{"type":"Feature","id":"1206306000","properties":{"municipality_code":"1206306000","municipality":"City of Koronadal","province":"South Cotabato","barangay_count":27},"geometry":{"type":"Polygon","coordinates":[[[124.86687495900003,6.341470035000043],[124.8659220795632,6.34240198267748],[124.83184975200005,6.377653330000043],[124.81343088500013,6.389075494000053],[124.84500280900012,6.419699153000067],[124.82691600500004,6.444986301000029],[124.8130812930001,6.464174916000045],[124.78578088200003,6.48301535200005],[124.81641082400007,6.515717738000035],[124.81696922011942,6.516655893582885],[124.82414900945281,6.525052206425339],[124.8283292660001,6.529940754000052],[124.82823862561358,6.53039931460204],[124.84122562700007,6.540021633000037],[124.86005515700002,6.538028619000043],[124.88128781900002,6.555289832000027],[124.91629619800007,6.577296666000053],[124.95040559800009,6.557693580000033],[124.96562704400002,6.554706194000062],[124.98983452400012,6.539853395000022],[124.98554958220583,6.5313491595863535],[124.98225171503506,6.524803950776117],[124.97040743500008,6.501296853000042],[124.96643803129892,6.500769708180951],[124.94826826106774,6.473154595034548],[124.920037481,6.474384933000068],[124.92298628700007,6.456449930000075],[124.92306272349806,6.449736231175902],[124.91265511200004,6.434933039000043],[124.91309273905512,6.43453685497564],[124.91253508279107,6.4343043994177],[124.90657894943448,6.403109815885437],[124.90646919800008,6.402535005000063],[124.90664113491893,6.402508570394623],[124.9076670810001,6.392589126000075],[124.88935454100009,6.389359712000044],[124.88957944966627,6.388306618050096],[124.88093305400004,6.38625945900003],[124.86865383800011,6.339575696000053],[124.86720017346022,6.341079662334355],[124.86687495900003,6.341470035000043]]]}},{"type":"Feature","id":"1206311000","properties":{"municipality_code":"1206311000","municipality":"Norala","province":"South Cotabato","barangay_count":14},"geometry":{"type":"Polygon","coordinates":[[[124.6583443610001,6.498525510000036],[124.63874877329212,6.5055283678421425],[124.63951104278856,6.506750560824326],[124.63503627800004,6.506855099000061],[124.62128816761535,6.511768249044668],[124.62002750503518,6.5092462370852795],[124.6232291686472,6.507130933313325],[124.61410498000009,6.50734409000006],[124.61389729000007,6.529383465000023],[124.61396013200012,6.549177350000036],[124.613643765,6.562389642000026],[124.62085504900007,6.573320038000076],[124.64921823800013,6.57993596800003],[124.66187004100006,6.568180675000064],[124.68451313099969,6.573228220999947],[124.71943144163261,6.5813528351279915],[124.71983603054737,6.58023283448147],[124.73076702800006,6.542403739000064],[124.75307320400007,6.514490503000047],[124.74571260296256,6.5080823043161375],[124.74695566500009,6.508218674000032],[124.727576343166,6.483653488597421],[124.72394587800011,6.479051519000053],[124.72353848907483,6.479056487419618],[124.6985494390001,6.479361248000032],[124.68573434300004,6.483197535000045],[124.65818804800004,6.4840339880000215],[124.6583443610001,6.498525510000036]]]}},{"type":"Feature","id":"1206312000","properties":{"municipality_code":"1206312000","municipality":"Polomolok","province":"South Cotabato","barangay_count":23},"geometry":{"type":"Polygon","coordinates":[[[125.01897904036383,6.205915628298838],[125.01607911500003,6.209124970000062],[125.0142943976022,6.211110368164926],[125.00605795800003,6.220272946000022],[125.00369876707144,6.222285821199819],[124.99131714500004,6.232849892000046],[124.9863654106523,6.2382767833837],[124.97880669500013,6.246560816000055],[124.98595294100006,6.270519473000036],[125.01035010400007,6.289365749000071],[125.07620906500006,6.359238639000068],[125.12454911500002,6.361280430000021],[125.16472306000001,6.339224147000039],[125.17812921100007,6.324000882000064],[125.18954006700005,6.296696573000077],[125.15292330800004,6.291989021000062],[125.138421739,6.281195458000069],[125.13519292900003,6.256522650000023],[125.1270943070001,6.216136437000046],[125.14034915200011,6.184853334000024],[125.13800751000007,6.16366155000003],[125.1203010910001,6.159096416000066],[125.05512857400005,6.15348065400002],[125.05512071807922,6.153501929563413],[125.04740709106613,6.174392129963318],[125.01897904036383,6.205915628298838]]]}},{"type":"Feature","id":"1206313000","properties":{"municipality_code":"1206313000","municipality":"Surallah","province":"South Cotabato","barangay_count":17},"geometry":{"type":"Polygon","coordinates":[[[124.69744350300003,6.293385406000029],[124.67955332400004,6.29721554200006],[124.66226243319156,6.30421384976015],[124.6582988799939,6.3058180565883575],[124.65571787333423,6.306862692121324],[124.64799267400008,6.309989386000041],[124.61168915548758,6.334765918194835],[124.57705243400005,6.356716961000075],[124.57761244738221,6.35802269026707],[124.58369021000011,6.372193624000033],[124.61041637100006,6.375020861000052],[124.6331832300001,6.399346561000072],[124.66158096700009,6.388889744000039],[124.69694709600002,6.399655844000052],[124.71047689339427,6.4085984989698535],[124.71899489943897,6.414228560298097],[124.73167952400003,6.390758895000033],[124.73575642589547,6.390297449967784],[124.73786260400006,6.387270168000043],[124.75637910400008,6.37536340400004],[124.78157655670933,6.360418400572327],[124.781578242,6.360417401000064],[124.78157852184228,6.360417874862717],[124.78523614800008,6.366611408000042],[124.81004402600001,6.351020843000073],[124.82332732800012,6.324589354000068],[124.84091787500006,6.331034390000069],[124.85478896100007,6.288891857000068],[124.85232259530946,6.288197288645033],[124.84556777457242,6.28629502218644],[124.84543626500012,6.288408201000038],[124.82617540200012,6.283034341000075],[124.82081560903295,6.279691314343249],[124.82093891100011,6.279359137000029],[124.80294314900004,6.266860051000037],[124.80201840212355,6.26796706227662],[124.79220255400004,6.279717580000067],[124.78699328300002,6.294813664000059],[124.75894214900008,6.29258952600003],[124.75259968900002,6.294590713000047],[124.73081438600002,6.286789553000061],[124.7196632823531,6.281405435448255],[124.69744350300003,6.293385406000029]]]}},{"type":"Feature","id":"1206314000","properties":{"municipality_code":"1206314000","municipality":"Tampakan","province":"South Cotabato","barangay_count":14},"geometry":{"type":"Polygon","coordinates":[[[124.91099184763216,6.40183966592241],[124.90664113491893,6.402508570394623],[124.90646919800008,6.402535005000063],[124.90657894943448,6.403109815885437],[124.91253508279107,6.4343043994177],[124.91309273905512,6.43453685497564],[124.91265511200004,6.434933039000043],[124.92306272349806,6.449736231175902],[124.92298628700007,6.456449930000075],[124.920037481,6.474384933000068],[124.94826826106774,6.473154595034548],[124.96643803129892,6.500769708180951],[124.97040743500008,6.501296853000042],[124.98225171503506,6.524803950776117],[124.98554958220583,6.5313491595863535],[124.98658362200003,6.531387749000033],[125.04918272700003,6.533723890000033],[125.09539730600012,6.532885993000036],[125.12126067600002,6.547711038000045],[125.14043474600011,6.520380430000043],[125.09799452200002,6.498286680000035],[125.10826968200001,6.451471095000045],[125.0884423430001,6.443406889000072],[125.06134294600008,6.426016902000073],[125.05348536877742,6.420189603597542],[125.05343413559024,6.42015160828915],[125.04515098200011,6.414008696000053],[125.03200873600008,6.409384573000067],[125.02662215059163,6.408954233991944],[125.02583838900013,6.408626915000069],[125.02078736556058,6.408222137089057],[124.99578692800002,6.406218657000067],[124.99577351963073,6.406232637560752],[124.991596328,6.405855772000052],[124.9756362060001,6.409782468000059],[124.96986553700003,6.408181616000036],[124.95407050300001,6.395216497000034],[124.93193636100011,6.399538994000067],[124.92771082782204,6.399269190380361],[124.92026460200009,6.398793743000055],[124.91131723687468,6.401789638643231],[124.91101075100003,6.401892261000058],[124.91099184763216,6.40183966592241]]]}},{"type":"Feature","id":"1206315000","properties":{"municipality_code":"1206315000","municipality":"Tantangan","province":"South Cotabato","barangay_count":13},"geometry":{"type":"Polygon","coordinates":[[[124.73076702800006,6.542403739000064],[124.71983603054737,6.58023283448147],[124.71943144163261,6.5813528351279915],[124.7171728120001,6.587605271999975],[124.70883322700003,6.604951609000066],[124.7130768610001,6.641481669000028],[124.74444480500006,6.654583915000045],[124.75953602900006,6.640085433000023],[124.7665794510001,6.602761475000023],[124.77847643400003,6.584848335000061],[124.78862847500011,6.576841209000066],[124.79661847900002,6.570539325000031],[124.8235565750001,6.55408637100004],[124.82823862561358,6.53039931460204],[124.8283292660001,6.529940754000052],[124.82414900945281,6.525052206425339],[124.81696922011942,6.516655893582885],[124.81413995700008,6.513347248000057],[124.77635361894157,6.501561922128629],[124.77335952600004,6.500628083000037],[124.75307320400007,6.514490503000047],[124.73076702800006,6.542403739000064]]]}},{"type":"Feature","id":"1206316000","properties":{"municipality_code":"1206316000","municipality":"T'Boli","province":"South Cotabato","barangay_count":25},"geometry":{"type":"Polygon","coordinates":[[[124.66600399200001,6.137575755000057],[124.68484526674902,6.144619221576138],[124.75346848900006,6.126707395000039],[124.76983281077936,6.140198122395353],[124.7824876750001,6.144567211000036],[124.78098091216425,6.16767460792806],[124.7806439680425,6.172841911885138],[124.78042876600011,6.176142205000075],[124.79104105100008,6.198628011000039],[124.79247122100003,6.231730763000029],[124.79190638500006,6.247238872000024],[124.79227846907372,6.250123987616685],[124.7926073010112,6.252673728993056],[124.79392891847095,6.262921464497702],[124.80201840212355,6.26796706227662],[124.80294314900004,6.266860051000037],[124.82093891100011,6.279359137000029],[124.82081560903295,6.279691314343249],[124.82617540200012,6.283034341000075],[124.84543626500012,6.288408201000038],[124.84556777457242,6.28629502218644],[124.85232259530946,6.288197288645033],[124.87390586700009,6.287536243000035],[124.89034759900007,6.278425690000063],[124.91442371618716,6.287088056638422],[124.91618613000003,6.287722157000075],[124.92020918063986,6.284785229163724],[124.92971952900008,6.280999761000032],[124.94350123000005,6.267046858000072],[124.94848774800006,6.25421623400007],[124.95238844087946,6.245755575404004],[124.95247919668311,6.2455587247689826],[124.95287544800009,6.244699250000052],[124.9591417105107,6.240288628002745],[124.96200136400012,6.238011189000075],[124.96235531380823,6.238026675304356],[124.96297246400002,6.237592283000028],[124.96585867977505,6.238179957465061],[124.98553710100009,6.239040944000067],[124.9863654106523,6.2382767833837],[124.99131714500004,6.232849892000046],[125.00369876707144,6.222285821199819],[125.00605795800003,6.220272946000022],[125.0142943976022,6.211110368164926],[125.01607911500003,6.209124970000062],[125.01897904036383,6.205915628298838],[125.04740709106613,6.174392129963318],[125.05512071807922,6.153501929563413],[125.05512857400005,6.15348065400002],[125.05512857400005,6.152239214000075],[124.99040631900006,6.141480966000074],[124.99086556200007,6.096677976000025],[125.00519482300001,6.0620872030000355],[125.00603333200002,6.01072849600007],[124.96681353200006,6.011008224000022],[124.84607298500009,6.013338533000023],[124.7434601540001,6.057808022000073],[124.687744359,6.080597101000023],[124.62429608100003,6.112986783000049],[124.66600399200001,6.137575755000057]]]}},{"type":"Feature","id":"1206317000","properties":{"municipality_code":"1206317000","municipality":"Tupi","province":"South Cotabato","barangay_count":15},"geometry":{"type":"Polygon","coordinates":[[[124.91065173100003,6.286579953000056],[124.88910300167655,6.314409659171906],[124.88486520475769,6.319681047747231],[124.88494552200007,6.319778952000036],[124.88040271958181,6.3252319256736715],[124.87934048300008,6.326553240000067],[124.86865383800011,6.339575696000053],[124.88093305400004,6.38625945900003],[124.88957944966627,6.388306618050096],[124.88935454100009,6.389359712000044],[124.9076670810001,6.392589126000075],[124.90664113491893,6.402508570394623],[124.91099184763216,6.40183966592241],[124.91101075100003,6.401892261000058],[124.91131723687468,6.401789638643231],[124.92026460200009,6.398793743000055],[124.92771082782204,6.399269190380361],[124.93193636100011,6.399538994000067],[124.95407050300001,6.395216497000034],[124.96986553700003,6.408181616000036],[124.9756362060001,6.409782468000059],[124.991596328,6.405855772000052],[124.99577351963073,6.406232637560752],[124.99578692800002,6.406218657000067],[125.02078736556058,6.408222137089057],[125.02583838900013,6.408626915000069],[125.02662215059163,6.408954233991944],[125.03200873600008,6.409384573000067],[125.04515098200011,6.414008696000053],[125.05343413559024,6.42015160828915],[125.05348536877742,6.420189603597542],[125.06134294600008,6.426016902000073],[125.0884423430001,6.443406889000072],[125.10826968200001,6.451471095000045],[125.10770072100001,6.4361091670000405],[125.11303874600003,6.43504862900005],[125.08528930600005,6.380247885000068],[125.07620906500006,6.359238639000068],[125.01035010400007,6.289365749000071],[124.98595294100006,6.270519473000036],[124.97880669500013,6.246560816000055],[124.9863654106523,6.2382767833837],[124.98553710100009,6.239040944000067],[124.96585867977505,6.238179957465061],[124.96297246400002,6.237592283000028],[124.96235531380823,6.238026675304356],[124.96200136400012,6.238011189000075],[124.9591417105107,6.240288628002745],[124.95287544800009,6.244699250000052],[124.95247919668311,6.2455587247689826],[124.95238844087946,6.245755575404004],[124.94848774800006,6.25421623400007],[124.94350123000005,6.267046858000072],[124.92971952900008,6.280999761000032],[124.92020918063986,6.284785229163724],[124.91618613000003,6.287722157000075],[124.91442371618716,6.287088056638422],[124.89034759900007,6.278425690000063],[124.91065173100003,6.286579953000056]]]}},{"type":"Feature","id":"1206318000","properties":{"municipality_code":"1206318000","municipality":"Santo Niño","province":"South Cotabato","barangay_count":10},"geometry":{"type":"Polygon","coordinates":[[[124.66364131400009,6.433604045000039],[124.63452403400004,6.435347308000074],[124.61669368300011,6.470166102000062],[124.63492771500012,6.499401833000031],[124.65818804800004,6.4840339880000215],[124.68573434300004,6.483197535000045],[124.6985494390001,6.479361248000032],[124.72353848907483,6.479056487419618],[124.70931392436037,6.455436146090948],[124.71520363614705,6.427618388847321],[124.71627457800001,6.424558645000046],[124.71798624300006,6.416094822000047],[124.71899489943897,6.414228560298097],[124.71047689339427,6.4085984989698535],[124.70762623700011,6.409330836000039],[124.67118395400007,6.418692902000033],[124.66364131400009,6.433604045000039]]]}},{"type":"Feature","id":"1206319000","properties":{"municipality_code":"1206319000","municipality":"Lake Sebu","province":"South Cotabato","barangay_count":19},"geometry":{"type":"Polygon","coordinates":[[[124.66600399200001,6.137575755000057],[124.62429608100003,6.112986783000049],[124.60706510000013,6.119304939000069],[124.54791421600011,6.148722360000023],[124.47221333700008,6.185371538000026],[124.40645356900005,6.207580064000069],[124.40700939500006,6.350098604000038],[124.4594253360001,6.350923175000047],[124.45941220600004,6.363368418000048],[124.53281171500011,6.388598426000044],[124.57761244738221,6.35802269026707],[124.57705243400005,6.356716961000075],[124.61168915548758,6.334765918194835],[124.64799267400008,6.309989386000041],[124.65571787333423,6.306862692121324],[124.6582988799939,6.3058180565883575],[124.66226243319156,6.30421384976015],[124.67955332400004,6.29721554200006],[124.69744350300003,6.293385406000029],[124.7196632823531,6.281405435448255],[124.73081438600002,6.286789553000061],[124.75259968900002,6.294590713000047],[124.75894214900008,6.29258952600003],[124.78699328300002,6.294813664000059],[124.79220255400004,6.279717580000067],[124.80201840212355,6.26796706227662],[124.79392891847095,6.262921464497702],[124.7926073010112,6.252673728993056],[124.79227846907372,6.250123987616685],[124.79190638500006,6.247238872000024],[124.79247122100003,6.231730763000029],[124.79104105100008,6.198628011000039],[124.78042876600011,6.176142205000075],[124.7806439680425,6.172841911885138],[124.78098091216425,6.16767460792806],[124.7824876750001,6.144567211000036],[124.76983281077936,6.140198122395353],[124.75346848900006,6.126707395000039],[124.68484526674902,6.144619221576138],[124.66600399200001,6.137575755000057]]]}}]}