{"type":"FeatureCollection","features":[{"type":"Feature","id":"1206300000","properties":{"province_code":"1206300000","province":"South Cotabato"},"geometry":{"type":"Polygon","coordinates":[[[124.4594253360001,6.350923175000047],[124.45941220600004,6.363368418000048],[124.53281171500011,6.388598426000044],[124.57761244738221,6.35802269026707],[124.58369021000011,6.372193624000033],[124.61041637100006,6.375020861000052],[124.6331832300001,6.399346561000072],[124.66158096700009,6.388889744000039],[124.69694709600002,6.399655844000052],[124.71047689339427,6.4085984989698535],[124.67118395400007,6.418692902000033],[124.66364131400009,6.433604045000039],[124.63452403400004,6.435347308000074],[124.61669368300011,6.470166102000062],[124.63492771500012,6.499401833000031],[124.65818804800004,6.4840339880000215],[124.6583443610001,6.498525510000036],[124.63874877329212,6.5055283678421425],[124.63951104278856,6.506750560824326],[124.63503627800004,6.506855099000061],[124.62128816761535,6.511768249044668],[124.62002750503518,6.5092462370852795],[124.6232291686472,6.507130933313325],[124.61410498000009,6.50734409000006],[124.61389729000007,6.529383465000023],[124.61396013200012,6.549177350000036],[124.613643765,6.562389642000026],[124.62085504900007,6.573320038000076],[124.64921823800013,6.57993596800003],[124.66187004100006,6.568180675000064],[124.68451313099969,6.573228220999947],[124.71943144163261,6.5813528351279915],[124.7171728120001,6.587605271999975],[124.70883322700003,6.604951609000066],[124.7130768610001,6.641481669000028],[124.74444480500006,6.654583915000045],[124.75953602900006,6.640085433000023],[124.7665794510001,6.602761475000023],[124.77847643400003,6.584848335000061],[124.78862847500011,6.576841209000066],[124.79661847900002,6.570539325000031],[124.8235565750001,6.55408637100004],[124.82823862561358,6.53039931460204],[124.84122562700007,6.540021633000037],[124.86005515700002,6.538028619000043],[124.88128781900002,6.555289832000027],[124.91629619800007,6.577296666000053],[124.95040559800009,6.557693580000033],[124.96562704400002,6.554706194000062],[124.98983452400012,6.539853395000022],[124.98554958220583,6.5313491595863535],[125.04918272700003,6.533723890000033],[125.09539730600012,6.532885993000036],[125.12126067600002,6.547711038000045],[125.14043474600011,6.520380430000043],[125.09799452200002,6.498286680000035],[125.10826968200001,6.451471095000045],[125.10770072100001,6.4361091670000405],[125.11303874600003,6.43504862900005],[125.08528930600005,6.380247885000068],[125.07620906500006,6.359238639000068],[125.12454911500002,6.361280430000021],[125.16472306000001,6.339224147000039],[125.17812921100007,6.324000882000064],[125.18954006700005,6.296696573000077],[125.15292330800004,6.291989021000062],[125.138421739,6.281195458000069],[125.13519292900003,6.256522650000023],[125.1270943070001,6.216136437000046],[125.14034915200011,6.184853334000024],[125.13800751000007,6.16366155000003],[125.1203010910001,6.159096416000066],[125.05512857400005,6.15348065400002],[125.05512857400005,6.152239214000075],[124.99040631900006,6.141480966000074],[124.99086556200007,6.096677976000025],[125.00519482300001,6.0620872030000355],[125.00603333200002,6.01072849600007],[124.96681353200006,6.011008224000022],[124.84607298500009,6.013338533000023],[124.7434601540001,6.057808022000073],[124.687744359,6.080597101000023],[124.62429608100003,6.112986783000049],[124.60706510000013,6.119304939000069],[124.54791421600011,6.148722360000023],[124.47221333700008,6.185371538000026],[124.40645356900005,6.207580064000069],[124.40700939500006,6.350098604000038],[124.4594253360001,6.350923175000047]]]}}]}